start=new Date('2022-05-03T00:00:00.000Z').valueOf();
sats=[{"ARG_OF_PERICENTER":"64.1146","FILE":"3426306","BSTAR":"0.00006509600000","CLASSIFICATION_TYPE":"U","ECCENTRICITY":"0.00015320","OBJECT_ID":"2020-019K","MEAN_MOTION_DDOT":"0.0000000000000","OBJECT_NAME":"STARLINK-1277","TLE_LINE1":"1 45369U 20019K   22122.86392170  .00000688  00000-0  65096-4 0  9996","TIME_SYSTEM":"UTC","COUNTRY_CODE":"US","CENTER_NAME":"EARTH","REF_FRAME":"TEME","PERIAPSIS":"546.200","SEMIMAJOR_AXIS":"6925.396","TLE_LINE2":"2 45369  53.0554   2.1066 0001532  64.1146 296.0001 15.06384387117696","GP_ID":"202554563","PERIOD":"95.593","APOAPSIS":"548.322","LAUNCH_DATE":"2020-03-18","MEAN_ANOMALY":"296.0001","EPHEMERIS_TYPE":"0","EPOCH":"2022-05-02T20:44:02.834880","MEAN_ELEMENT_THEORY":"SGP4","RA_OF_ASC_NODE":"2.1066","NORAD_CAT_ID":"45369","OBJECT_TYPE":"PAYLOAD","RCS_SIZE":"LARGE","REV_AT_EPOCH":"11769","DECAY_DATE":null,"MEAN_MOTION":"15.06384387","ELEMENT_SET_NO":"999","INCLINATION":"53.0554","MEAN_MOTION_DOT":"0.00000688","SITE":"AFETR"},{"PERIOD":"95.593","GP_ID":"202554809","TLE_LINE2":"2 45370  53.0557   2.1593 0001451  72.6483 287.4665 15.06388425117691","SEMIMAJOR_AXIS":"6925.384","APOAPSIS":"548.254","MEAN_ANOMALY":"287.4665","LAUNCH_DATE":"2020-03-18","MEAN_ELEMENT_THEORY":"SGP4","EPHEMERIS_TYPE":"0","EPOCH":"2022-05-02T20:29:28.409856","RA_OF_ASC_NODE":"2.1593","RCS_SIZE":"LARGE","OBJECT_TYPE":"PAYLOAD","NORAD_CAT_ID":"45370","MEAN_MOTION_DOT":"0.00001093","SITE":"AFETR","DECAY_DATE":null,"INCLINATION":"53.0557","REV_AT_EPOCH":"11769","ELEMENT_SET_NO":"999","MEAN_MOTION":"15.06388425","ARG_OF_PERICENTER":"72.6483","FILE":"3426306","CLASSIFICATION_TYPE":"U","BSTAR":"0.00009229900000","MEAN_MOTION_DDOT":"0.0000000000000","OBJECT_ID":"2020-019L","ECCENTRICITY":"0.00014510","TLE_LINE1":"1 45370U 20019L   22122.85380104  .00001093  00000-0  92299-4 0  9997","TIME_SYSTEM":"UTC","OBJECT_NAME":"STARLINK-1281","COUNTRY_CODE":"US","CENTER_NAME":"EARTH","REF_FRAME":"TEME","PERIAPSIS":"546.244"},{"ECCENTRICITY":"0.00016250","OBJECT_ID":"2020-019M","MEAN_MOTION_DDOT":"0.0000000000000","BSTAR":"0.00000499900000","CLASSIFICATION_TYPE":"U","FILE":"3426306","ARG_OF_PERICENTER":"80.2664","PERIAPSIS":"546.143","COUNTRY_CODE":"US","CENTER_NAME":"EARTH","REF_FRAME":"TEME","OBJECT_NAME":"STARLINK-1287","TIME_SYSTEM":"UTC","TLE_LINE1":"1 45371U 20019M   22122.81693109 -.00000207  00000-0  49990-5 0  9994","EPHEMERIS_TYPE":"0","EPOCH":"2022-05-02T19:36:22.846176","MEAN_ELEMENT_THEORY":"SGP4","LAUNCH_DATE":"2020-03-18","MEAN_ANOMALY":"279.8509","APOAPSIS":"548.394","TLE_LINE2":"2 45371  53.0560   2.3193 0001625  80.2664 279.8509 15.06382023117682","GP_ID":"202553563","SEMIMAJOR_AXIS":"6925.404","PERIOD":"95.593","DECAY_DATE":null,"REV_AT_EPOCH":"11768","ELEMENT_SET_NO":"999","INCLINATION":"53.0560","MEAN_MOTION":"15.06382023","MEAN_MOTION_DOT":"-0.00000207","SITE":"AFETR","NORAD_CAT_ID":"45371","OBJECT_TYPE":"PAYLOAD","RCS_SIZE":"LARGE","RA_OF_ASC_NODE":"2.3193"},{"TIME_SYSTEM":"UTC","TLE_LINE1":"1 45372U 20019N   22122.83170213 -.00001703  00000-0 -95503-4 0  9996","OBJECT_NAME":"STARLINK-1288","COUNTRY_CODE":"US","CENTER_NAME":"EARTH","REF_FRAME":"TEME","PERIAPSIS":"546.163","ARG_OF_PERICENTER":"57.7266","FILE":"3426306","CLASSIFICATION_TYPE":"U","BSTAR":"-0.00009550300000","MEAN_MOTION_DDOT":"0.0000000000000","ECCENTRICITY":"0.00016040","OBJECT_ID":"2020-019N","RA_OF_ASC_NODE":"2.2613","RCS_SIZE":"LARGE","OBJECT_TYPE":"PAYLOAD","NORAD_CAT_ID":"45372","SITE":"AFETR","MEAN_MOTION_DOT":"-0.00001703","DECAY_DATE":null,"ELEMENT_SET_NO":"999","REV_AT_EPOCH":"11768","MEAN_MOTION":"15.06380433","INCLINATION":"53.0544","PERIOD":"95.593","GP_ID":"202553813","TLE_LINE2":"2 45372  53.0544   2.2613 0001604  57.7266 302.3878 15.06380433117689","SEMIMAJOR_AXIS":"6925.409","APOAPSIS":"548.384","MEAN_ANOMALY":"302.3878","LAUNCH_DATE":"2020-03-18","MEAN_ELEMENT_THEORY":"SGP4","EPHEMERIS_TYPE":"0","EPOCH":"2022-05-02T19:57:39.064032"},{"SITE":"AFETR","MEAN_MOTION_DOT":"0.00004525","REV_AT_EPOCH":"11768","DECAY_DATE":null,"MEAN_MOTION":"15.06403632","ELEMENT_SET_NO":"999","INCLINATION":"53.0553","RCS_SIZE":"LARGE","OBJECT_TYPE":"PAYLOAD","NORAD_CAT_ID":"45373","RA_OF_ASC_NODE":"2.3275","MEAN_ELEMENT_THEORY":"SGP4","EPHEMERIS_TYPE":"0","EPOCH":"2022-05-02T19:31:05.103264","MEAN_ANOMALY":"281.0699","LAUNCH_DATE":"2020-03-18","APOAPSIS":"548.229","PERIOD":"95.592","SEMIMAJOR_AXIS":"6925.337","TLE_LINE2":"2 45373  53.0553   2.3275 0001482  79.0457 281.0699 15.06403632117689","GP_ID":"202554063","PERIAPSIS":"546.176","CENTER_NAME":"EARTH","COUNTRY_CODE":"US","REF_FRAME":"TEME","TIME_SYSTEM":"UTC","TLE_LINE1":"1 45373U 20019P   22122.81325351  .00004525  00000-0  32244-3 0  9995","OBJECT_NAME":"STARLINK-1295","MEAN_MOTION_DDOT":"0.0000000000000","ECCENTRICITY":"0.00014820","OBJECT_ID":"2020-019P","CLASSIFICATION_TYPE":"U","BSTAR":"0.00032244000000","FILE":"3426306","ARG_OF_PERICENTER":"79.0457"},{"EPHEMERIS_TYPE":"0","EPOCH":"2022-05-02T19:25:46.718400","MEAN_ELEMENT_THEORY":"SGP4","LAUNCH_DATE":"2020-03-18","MEAN_ANOMALY":"276.1413","APOAPSIS":"548.208","GP_ID":"202554309","TLE_LINE2":"2 45374  53.0561   2.3463 0001394  83.9735 276.1413 15.06390671117680","SEMIMAJOR_AXIS":"6925.377","PERIOD":"95.593","ELEMENT_SET_NO":"999","DECAY_DATE":null,"REV_AT_EPOCH":"11768","MEAN_MOTION":"15.06390671","INCLINATION":"53.0561","MEAN_MOTION_DOT":"0.00001480","SITE":"AFETR","OBJECT_TYPE":"PAYLOAD","NORAD_CAT_ID":"45374","RCS_SIZE":"LARGE","RA_OF_ASC_NODE":"2.3463","OBJECT_ID":"2020-019Q","ECCENTRICITY":"0.00013940","MEAN_MOTION_DDOT":"0.0000000000000","BSTAR":"0.00011824000000","CLASSIFICATION_TYPE":"U","FILE":"3426306","ARG_OF_PERICENTER":"83.9735","PERIAPSIS":"546.277","COUNTRY_CODE":"US","REF_FRAME":"TEME","CENTER_NAME":"EARTH","OBJECT_NAME":"STARLINK-1300","TIME_SYSTEM":"UTC","TLE_LINE1":"1 45374U 20019Q   22122.80956850  .00001480  00000-0  11824-3 0  9997"},{"TIME_SYSTEM":"UTC","TLE_LINE1":"1 45375U 20019R   22122.82432539 -.00000476  00000-0 -13056-4 0  9999","OBJECT_NAME":"STARLINK-1302","COUNTRY_CODE":"US","REF_FRAME":"TEME","CENTER_NAME":"EARTH","PERIAPSIS":"546.324","ARG_OF_PERICENTER":"77.8034","FILE":"3426306","CLASSIFICATION_TYPE":"U","BSTAR":"-0.00001305600000","MEAN_MOTION_DDOT":"0.0000000000000","ECCENTRICITY":"0.00013820","OBJECT_ID":"2020-019R","RA_OF_ASC_NODE":"2.2829","RCS_SIZE":"LARGE","OBJECT_TYPE":"PAYLOAD","NORAD_CAT_ID":"45375","SITE":"AFETR","MEAN_MOTION_DOT":"-0.00000476","DECAY_DATE":null,"INCLINATION":"53.0546","REV_AT_EPOCH":"11768","ELEMENT_SET_NO":"999","MEAN_MOTION":"15.06378120","PERIOD":"95.594","GP_ID":"202553063","TLE_LINE2":"2 45375  53.0546   2.2829 0001382  77.8034 282.3110 15.06378120117688","SEMIMAJOR_AXIS":"6925.416","APOAPSIS":"548.238","MEAN_ANOMALY":"282.3110","LAUNCH_DATE":"2020-03-18","MEAN_ELEMENT_THEORY":"SGP4","EPHEMERIS_TYPE":"0","EPOCH":"2022-05-02T19:47:01.713696"},{"ARG_OF_PERICENTER":"91.8020","FILE":"3426306","BSTAR":"0.00016381000000","CLASSIFICATION_TYPE":"U","ECCENTRICITY":"0.00013960","OBJECT_ID":"2020-019S","MEAN_MOTION_DDOT":"0.0000000000000","OBJECT_NAME":"STARLINK-1304","TLE_LINE1":"1 45376U 20019S   22122.84275326  .00002159  00000-0  16381-3 0  9992","TIME_SYSTEM":"UTC","COUNTRY_CODE":"US","REF_FRAME":"TEME","CENTER_NAME":"EARTH","PERIAPSIS":"546.275","TLE_LINE2":"2 45376  53.0549   2.2127 0001396  91.8020 268.3129 15.06390711117683","SEMIMAJOR_AXIS":"6925.377","GP_ID":"202553313","PERIOD":"95.593","APOAPSIS":"548.209","LAUNCH_DATE":"2020-03-18","MEAN_ANOMALY":"268.3129","EPHEMERIS_TYPE":"0","EPOCH":"2022-05-02T20:13:33.881664","MEAN_ELEMENT_THEORY":"SGP4","RA_OF_ASC_NODE":"2.2127","NORAD_CAT_ID":"45376","OBJECT_TYPE":"PAYLOAD","RCS_SIZE":"LARGE","ELEMENT_SET_NO":"999","DECAY_DATE":null,"REV_AT_EPOCH":"11768","INCLINATION":"53.0549","MEAN_MOTION":"15.06390711","SITE":"AFETR","MEAN_MOTION_DOT":"0.00002159"},{"MEAN_MOTION_DOT":"0.00003350","SITE":"AFETR","REV_AT_EPOCH":"11769","DECAY_DATE":null,"MEAN_MOTION":"15.06367205","ELEMENT_SET_NO":"999","INCLINATION":"53.0566","RCS_SIZE":"LARGE","NORAD_CAT_ID":"45377","OBJECT_TYPE":"PAYLOAD","RA_OF_ASC_NODE":"2.0755","MEAN_ELEMENT_THEORY":"SGP4","EPHEMERIS_TYPE":"0","EPOCH":"2022-05-02T20:50:43.491552","MEAN_ANOMALY":"284.8218","LAUNCH_DATE":"2020-03-18","APOAPSIS":"548.317","PERIOD":"95.594","TLE_LINE2":"2 45377  53.0566   2.0755 0001448  75.2931 284.8218 15.06367205117698","GP_ID":"202532735","SEMIMAJOR_AXIS":"6925.449","PERIAPSIS":"546.311","CENTER_NAME":"EARTH","COUNTRY_CODE":"US","REF_FRAME":"TEME","TIME_SYSTEM":"UTC","TLE_LINE1":"1 45377U 20019T   22122.86855893  .00003350  00000-0  24390-3 0  9991","OBJECT_NAME":"STARLINK-1305","MEAN_MOTION_DDOT":"0.0000000000000","OBJECT_ID":"2020-019T","ECCENTRICITY":"0.00014480","CLASSIFICATION_TYPE":"U","BSTAR":"0.00024390000000","FILE":"3426169","ARG_OF_PERICENTER":"75.2931"},{"OBJECT_NAME":"STARLINK-1310","TLE_LINE1":"1 45378U 20019U   22122.85748692  .00001649  00000-0  12964-3 0  9992","TIME_SYSTEM":"UTC","PERIAPSIS":"546.207","COUNTRY_CODE":"US","CENTER_NAME":"EARTH","REF_FRAME":"TEME","FILE":"3426170","ARG_OF_PERICENTER":"80.2876","OBJECT_ID":"2020-019U","ECCENTRICITY":"0.00014980","MEAN_MOTION_DDOT":"0.0000000000000","BSTAR":"0.00012964000000","CLASSIFICATION_TYPE":"U","OBJECT_TYPE":"PAYLOAD","NORAD_CAT_ID":"45378","RCS_SIZE":"LARGE","RA_OF_ASC_NODE":"2.1354","REV_AT_EPOCH":"11769","DECAY_DATE":null,"MEAN_MOTION":"15.06389846","ELEMENT_SET_NO":"999","INCLINATION":"53.0552","MEAN_MOTION_DOT":"0.00001649","SITE":"AFETR","APOAPSIS":"548.282","TLE_LINE2":"2 45378  53.0552   2.1354 0001498  80.2876 279.8282 15.06389846117699","GP_ID":"202532750","SEMIMAJOR_AXIS":"6925.380","PERIOD":"95.593","EPHEMERIS_TYPE":"0","EPOCH":"2022-05-02T20:34:46.869888","MEAN_ELEMENT_THEORY":"SGP4","LAUNCH_DATE":"2020-03-18","MEAN_ANOMALY":"279.8282"}];
